start=new Date('2022-06-02T00:00:00.000Z').valueOf();
sats=[{"GP_ID":"205124147","SEMIMAJOR_AXIS":"6925.289","ECCENTRICITY":"0.00014040","TLE_LINE1":"1 48430U 21040C   22152.83334491 -.00031326  00000-0 -20923-2 0  9998","MEAN_MOTION_DDOT":"0.0000000000000","MEAN_ANOMALY":"333.7326","MEAN_ELEMENT_THEORY":"SGP4","ELEMENT_SET_NO":"999","NORAD_CAT_ID":"48430","COUNTRY_CODE":"US","TLE_LINE2":"2 48430  53.0523 217.5737 0001404  56.1922 333.7326 15.06419486  1300","ARG_OF_PERICENTER":"56.1922","OBJECT_TYPE":"PAYLOAD","CLASSIFICATION_TYPE":"U","APOAPSIS":"548.126","PERIAPSIS":"546.182","BSTAR":"-0.00209230000000","PERIOD":"95.591","DECAY_DATE":null,"SITE":"AFETR","REV_AT_EPOCH":"130","OBJECT_ID":"2021-040C","LAUNCH_DATE":"2021-05-09","OBJECT_NAME":"STARLINK-2729","EPOCH":"2022-06-01T20:00:01.000224","EPHEMERIS_TYPE":"0","REF_FRAME":"TEME","RA_OF_ASC_NODE":"217.5737","MEAN_MOTION_DOT":"-0.00031326","CENTER_NAME":"EARTH","FILE":"3476255","MEAN_MOTION":"15.06419486","INCLINATION":"53.0523","TIME_SYSTEM":"UTC","RCS_SIZE":"LARGE"},{"REV_AT_EPOCH":"130","OBJECT_ID":"2021-040D","LAUNCH_DATE":"2021-05-09","OBJECT_NAME":"STARLINK-2700","EPOCH":"2022-06-01T20:00:01.000224","REF_FRAME":"TEME","EPHEMERIS_TYPE":"0","DECAY_DATE":null,"SITE":"AFETR","MEAN_MOTION":"15.06439313","FILE":"3476255","INCLINATION":"53.0536","RCS_SIZE":"LARGE","TIME_SYSTEM":"UTC","RA_OF_ASC_NODE":"212.5702","MEAN_MOTION_DOT":"-0.00072409","CENTER_NAME":"EARTH","MEAN_ANOMALY":"251.5343","MEAN_ELEMENT_THEORY":"SGP4","ELEMENT_SET_NO":"999","NORAD_CAT_ID":"48431","COUNTRY_CODE":"US","SEMIMAJOR_AXIS":"6925.228","GP_ID":"205125398","TLE_LINE1":"1 48431U 21040D   22152.83334491 -.00072409  00000-0 -48867-2 0  9993","MEAN_MOTION_DDOT":"0.0000000000000","ECCENTRICITY":"0.00014950","APOAPSIS":"548.128","CLASSIFICATION_TYPE":"U","PERIAPSIS":"546.058","BSTAR":"-0.00488670000000","PERIOD":"95.590","TLE_LINE2":"2 48431  53.0536 212.5702 0001495  65.9187 251.5343 15.06439313  1300","ARG_OF_PERICENTER":"65.9187","OBJECT_TYPE":"PAYLOAD"},{"EPHEMERIS_TYPE":"0","REF_FRAME":"TEME","EPOCH":"2022-06-01T20:00:01.000224","OBJECT_NAME":"STARLINK-2680","LAUNCH_DATE":"2021-05-09","REV_AT_EPOCH":"130","OBJECT_ID":"2021-040E","SITE":"AFETR","DECAY_DATE":null,"RCS_SIZE":"LARGE","TIME_SYSTEM":"UTC","INCLINATION":"53.0517","MEAN_MOTION":"15.03976137","FILE":"3476255","MEAN_MOTION_DOT":"-0.00028900","CENTER_NAME":"EARTH","RA_OF_ASC_NODE":"207.7782","COUNTRY_CODE":"US","NORAD_CAT_ID":"48432","ELEMENT_SET_NO":"999","MEAN_ELEMENT_THEORY":"SGP4","MEAN_ANOMALY":"63.8865","TLE_LINE1":"1 48432U 21040E   22152.83334491 -.00028900  00000-0 -20594-2 0  9998","ECCENTRICITY":"0.00012500","MEAN_MOTION_DDOT":"0.0000000000000","GP_ID":"205125125","SEMIMAJOR_AXIS":"6932.787","PERIOD":"95.746","BSTAR":"-0.00205940000000","PERIAPSIS":"553.786","APOAPSIS":"555.519","CLASSIFICATION_TYPE":"U","OBJECT_TYPE":"PAYLOAD","ARG_OF_PERICENTER":"92.7328","TLE_LINE2":"2 48432  53.0517 207.7782 0001250  92.7328  63.8865 15.03976137  1308"},{"INCLINATION":"53.0537","RCS_SIZE":"LARGE","TIME_SYSTEM":"UTC","MEAN_MOTION":"15.06401127","FILE":"3476255","MEAN_MOTION_DOT":"-0.00031243","CENTER_NAME":"EARTH","RA_OF_ASC_NODE":"212.8507","EPOCH":"2022-06-01T20:00:01.000224","EPHEMERIS_TYPE":"0","REF_FRAME":"TEME","OBJECT_NAME":"STARLINK-2699","REV_AT_EPOCH":"130","OBJECT_ID":"2021-040F","LAUNCH_DATE":"2021-05-09","SITE":"AFETR","DECAY_DATE":null,"PERIOD":"95.592","BSTAR":"-0.00208770000000","PERIAPSIS":"546.295","CLASSIFICATION_TYPE":"U","APOAPSIS":"548.126","OBJECT_TYPE":"PAYLOAD","ARG_OF_PERICENTER":"74.3245","TLE_LINE2":"2 48433  53.0537 212.8507 0001322  74.3245 277.9052 15.06401127  1308","COUNTRY_CODE":"US","ELEMENT_SET_NO":"999","NORAD_CAT_ID":"48433","MEAN_ANOMALY":"277.9052","MEAN_ELEMENT_THEORY":"SGP4","TLE_LINE1":"1 48433U 21040F   22152.83334491 -.00031243  00000-0 -20877-2 0  9997","ECCENTRICITY":"0.00013220","MEAN_MOTION_DDOT":"0.0000000000000","SEMIMAJOR_AXIS":"6925.345","GP_ID":"205123898"},{"ELEMENT_SET_NO":"999","NORAD_CAT_ID":"48434","MEAN_ANOMALY":"162.6133","MEAN_ELEMENT_THEORY":"SGP4","COUNTRY_CODE":"US","GP_ID":"205124646","SEMIMAJOR_AXIS":"6932.774","ECCENTRICITY":"0.00014490","TLE_LINE1":"1 48434U 21040G   22152.83334491 -.00075065  00000-0 -54153-2 0  9992","MEAN_MOTION_DDOT":"0.0000000000000","PERIAPSIS":"553.635","APOAPSIS":"555.644","CLASSIFICATION_TYPE":"U","PERIOD":"95.746","BSTAR":"-0.00541530000000","ARG_OF_PERICENTER":"70.3976","TLE_LINE2":"2 48434  53.0528 217.9882 0001449  70.3976 162.6133 15.03980359  1304","OBJECT_TYPE":"PAYLOAD","OBJECT_ID":"2021-040G","REV_AT_EPOCH":"130","LAUNCH_DATE":"2021-05-09","EPOCH":"2022-06-01T20:00:01.000224","EPHEMERIS_TYPE":"0","REF_FRAME":"TEME","OBJECT_NAME":"STARLINK-2692","DECAY_DATE":null,"SITE":"AFETR","MEAN_MOTION":"15.03980359","FILE":"3476255","INCLINATION":"53.0528","RCS_SIZE":"LARGE","TIME_SYSTEM":"UTC","RA_OF_ASC_NODE":"217.9882","MEAN_MOTION_DOT":"-0.00075065","CENTER_NAME":"EARTH"},{"TLE_LINE2":"2 48435  53.0537 227.3929 0002214  41.8772 318.2386 15.05911203 59317","ARG_OF_PERICENTER":"41.8772","OBJECT_TYPE":"PAYLOAD","CLASSIFICATION_TYPE":"U","APOAPSIS":"550.246","PERIAPSIS":"547.178","BSTAR":"-0.00967390000000","PERIOD":"95.623","SEMIMAJOR_AXIS":"6926.847","GP_ID":"205124899","ECCENTRICITY":"0.00022140","TLE_LINE1":"1 48435U 21040H   22152.87140306 -.00139727  00000-0 -96739-2 0  9999","MEAN_MOTION_DDOT":"0.0000000000000","MEAN_ANOMALY":"318.2386","MEAN_ELEMENT_THEORY":"SGP4","ELEMENT_SET_NO":"999","NORAD_CAT_ID":"48435","COUNTRY_CODE":"US","RA_OF_ASC_NODE":"227.3929","MEAN_MOTION_DOT":"-0.00139727","CENTER_NAME":"EARTH","FILE":"3476255","MEAN_MOTION":"15.05911203","INCLINATION":"53.0537","TIME_SYSTEM":"UTC","RCS_SIZE":"LARGE","DECAY_DATE":null,"SITE":"AFETR","REV_AT_EPOCH":"5931","OBJECT_ID":"2021-040H","LAUNCH_DATE":"2021-05-09","OBJECT_NAME":"STARLINK-2633","EPOCH":"2022-06-01T20:54:49.224384","EPHEMERIS_TYPE":"0","REF_FRAME":"TEME"},{"EPOCH":"2022-06-01T14:18:23.322528","EPHEMERIS_TYPE":"0","REF_FRAME":"TEME","OBJECT_NAME":"STARLINK-2639","REV_AT_EPOCH":"5906","OBJECT_ID":"2021-040J","LAUNCH_DATE":"2021-05-09","SITE":"AFETR","DECAY_DATE":null,"INCLINATION":"53.0552","TIME_SYSTEM":"UTC","RCS_SIZE":"LARGE","FILE":"3476255","MEAN_MOTION":"15.06398541","CENTER_NAME":"EARTH","MEAN_MOTION_DOT":"0.00002336","RA_OF_ASC_NODE":"243.6301","COUNTRY_CODE":"US","ELEMENT_SET_NO":"999","NORAD_CAT_ID":"48436","MEAN_ANOMALY":"299.2943","MEAN_ELEMENT_THEORY":"SGP4","ECCENTRICITY":"0.00013690","TLE_LINE1":"1 48436U 21040J   22152.59610327  .00002336  00000-0  17567-3 0  9990","MEAN_MOTION_DDOT":"0.0000000000000","SEMIMAJOR_AXIS":"6925.353","GP_ID":"205125625","PERIOD":"95.592","BSTAR":"0.00017567000000","PERIAPSIS":"546.270","CLASSIFICATION_TYPE":"U","APOAPSIS":"548.166","OBJECT_TYPE":"PAYLOAD","ARG_OF_PERICENTER":"60.8183","TLE_LINE2":"2 48436  53.0552 243.6301 0001369  60.8183 299.2943 15.06398541 59061"},{"TLE_LINE1":"1 48437U 21040K   22152.58043886  .00003738  00000-0  26971-3 0  9996","MEAN_MOTION_DDOT":"0.0000000000000","ECCENTRICITY":"0.00016780","GP_ID":"205124397","SEMIMAJOR_AXIS":"6925.339","COUNTRY_CODE":"US","ELEMENT_SET_NO":"999","NORAD_CAT_ID":"48437","MEAN_ANOMALY":"308.1759","MEAN_ELEMENT_THEORY":"SGP4","OBJECT_TYPE":"PAYLOAD","ARG_OF_PERICENTER":"51.9381","TLE_LINE2":"2 48437  53.0530 253.6889 0001678  51.9381 308.1759 15.06403007 58927","PERIOD":"95.592","BSTAR":"0.00026971000000","PERIAPSIS":"546.042","APOAPSIS":"548.366","CLASSIFICATION_TYPE":"U","SITE":"AFETR","DECAY_DATE":null,"EPOCH":"2022-06-01T13:55:49.917504","REF_FRAME":"TEME","EPHEMERIS_TYPE":"0","OBJECT_NAME":"STARLINK-2642","REV_AT_EPOCH":"5892","OBJECT_ID":"2021-040K","LAUNCH_DATE":"2021-05-09","CENTER_NAME":"EARTH","MEAN_MOTION_DOT":"0.00003738","RA_OF_ASC_NODE":"253.6889","INCLINATION":"53.0530","RCS_SIZE":"LARGE","TIME_SYSTEM":"UTC","MEAN_MOTION":"15.06403007","FILE":"3476255"},{"CENTER_NAME":"EARTH","MEAN_MOTION_DOT":"0.00001127","RA_OF_ASC_NODE":"243.3504","INCLINATION":"53.0539","RCS_SIZE":"LARGE","TIME_SYSTEM":"UTC","FILE":"3476255","MEAN_MOTION":"15.06403862","SITE":"AFETR","DECAY_DATE":null,"EPOCH":"2022-06-01T15:48:37.700352","REF_FRAME":"TEME","EPHEMERIS_TYPE":"0","OBJECT_NAME":"STARLINK-2640","OBJECT_ID":"2021-040L","REV_AT_EPOCH":"5907","LAUNCH_DATE":"2021-05-09","OBJECT_TYPE":"PAYLOAD","ARG_OF_PERICENTER":"37.3997","TLE_LINE2":"2 48438  53.0539 243.3504 0002189  37.3997 322.7144 15.06403862 59072","PERIOD":"95.592","BSTAR":"0.00009455400000","PERIAPSIS":"545.686","CLASSIFICATION_TYPE":"U","APOAPSIS":"548.718","TLE_LINE1":"1 48438U 21040L   22152.65876968  .00001127  00000-0  94554-4 0  9993","ECCENTRICITY":"0.00021890","MEAN_MOTION_DDOT":"0.0000000000000","GP_ID":"205124148","SEMIMAJOR_AXIS":"6925.337","COUNTRY_CODE":"US","ELEMENT_SET_NO":"999","NORAD_CAT_ID":"48438","MEAN_ANOMALY":"322.7144","MEAN_ELEMENT_THEORY":"SGP4"},{"TLE_LINE2":"2 48439  53.0519 243.9702 0001389  65.2388 294.8746 15.06399145 59055","ARG_OF_PERICENTER":"65.2388","OBJECT_TYPE":"PAYLOAD","APOAPSIS":"548.178","CLASSIFICATION_TYPE":"U","PERIAPSIS":"546.254","BSTAR":"0.00000713350000","PERIOD":"95.592","GP_ID":"205125399","SEMIMAJOR_AXIS":"6925.351","ECCENTRICITY":"0.00013890","TLE_LINE1":"1 48439U 21040M   22152.52237428 -.00000175  00000-0  71335-5 0  9998","MEAN_MOTION_DDOT":"0.0000000000000","MEAN_ELEMENT_THEORY":"SGP4","MEAN_ANOMALY":"294.8746","NORAD_CAT_ID":"48439","ELEMENT_SET_NO":"999","COUNTRY_CODE":"US","RA_OF_ASC_NODE":"243.9702","MEAN_MOTION_DOT":"-0.00000175","CENTER_NAME":"EARTH","FILE":"3476255","MEAN_MOTION":"15.06399145","RCS_SIZE":"LARGE","TIME_SYSTEM":"UTC","INCLINATION":"53.0519","DECAY_DATE":null,"SITE":"AFETR","LAUNCH_DATE":"2021-05-09","OBJECT_ID":"2021-040M","REV_AT_EPOCH":"5905","OBJECT_NAME":"STARLINK-2583","REF_FRAME":"TEME","EPHEMERIS_TYPE":"0","EPOCH":"2022-06-01T12:32:13.137792"}];
